IXPE                    
1 49954U 21121A   24185.91667824  .00007530  00000+0  54627-3 0  9992
2 49954   0.2306 269.7048 0009410 169.7213 353.9171 14.98409383140411
